{
  "type": "FeatureCollection",
  "features": [
    {
      "type": "Feature",
      "properties": {
        "norad_id": 2807,
        "name": "OPS 7218 (TRANSIT 16)",
        "group": "nnss",
        "lat": 35.972084959544084,
        "lon": -5.402830137347188,
        "alt_km": 1071.499690954366,
        "timestamp": "2025-12-02T08:59:32.982576+00:00",
        "meta_object_name": "OPS 7218 (TRANSIT 16)",
        "meta_object_id": "1967-048A",
        "meta_epoch": "2025-12-02T03:48:58.538304",
        "meta_mean_motion": 13.50719083,
        "meta_eccentricity": 0.002139,
        "meta_inclination": 89.6737,
        "meta_ra_of_asc_node": 354.3673,
        "meta_arg_of_pericenter": 142.6225,
        "meta_mean_anomaly": 285.552,
        "meta_ephemeris_type": 0,
        "meta_classification_type": "U",
        "meta_norad_cat_id": 2807,
        "meta_element_set_no": 999,
        "meta_rev_at_epoch": 88133,
        "meta_bstar": 0.00020275,
        "meta_mean_motion_dot": 1.41e-06,
        "meta_mean_motion_ddot": 0,
        "tle_line1": "1 02807U 67048A   25336.15901086  .00000141  00000+0  20275-3 0  9995",
        "tle_line2": "2 02807  89.6737 354.3673 0021390 142.6225 285.5520 13.50719083881334"
      },
      "geometry": {
        "type": "Point",
        "coordinates": [
          -5.402830137347188,
          35.972084959544084
        ]
      }
    },
    {
      "type": "Feature",
      "properties": {
        "norad_id": 2965,
        "name": "OPS 4947 (TRANSIT 17)",
        "group": "nnss",
        "lat": -0.5867243858503574,
        "lon": 25.218021632209354,
        "alt_km": 1064.740134940711,
        "timestamp": "2025-12-02T08:59:32.982597+00:00",
        "meta_object_name": "OPS 4947 (TRANSIT 17)",
        "meta_object_id": "1967-092A",
        "meta_epoch": "2025-12-02T03:56:14.949024",
        "meta_mean_motion": 13.53449539,
        "meta_eccentricity": 0.0045741,
        "meta_inclination": 89.2508,
        "meta_ra_of_asc_node": 25.2417,
        "meta_arg_of_pericenter": 266.3193,
        "meta_mean_anomaly": 147.0431,
        "meta_ephemeris_type": 0,
        "meta_classification_type": "U",
        "meta_norad_cat_id": 2965,
        "meta_element_set_no": 999,
        "meta_rev_at_epoch": 86954,
        "meta_bstar": 0.00020524,
        "meta_mean_motion_dot": 1.5e-06,
        "meta_mean_motion_ddot": 0,
        "tle_line1": "1 02965U 67092A   25336.16406191  .00000150  00000+0  20524-3 0  9994",
        "tle_line2": "2 02965  89.2508  25.2417 0045741 266.3193 147.0431 13.53449539869546"
      },
      "geometry": {
        "type": "Point",
        "coordinates": [
          25.218021632209354,
          -0.5867243858503574
        ]
      }
    },
    {
      "type": "Feature",
      "properties": {
        "norad_id": 3133,
        "name": "OPS 7034 (TRANSIT 18)",
        "group": "nnss",
        "lat": -38.93334101970788,
        "lon": 93.58843162563261,
        "alt_km": 1021.8233963326784,
        "timestamp": "2025-12-02T08:59:32.982610+00:00",
        "meta_object_name": "OPS 7034 (TRANSIT 18)",
        "meta_object_id": "1968-012A",
        "meta_epoch": "2025-12-02T02:38:24.343008",
        "meta_mean_motion": 13.51561982,
        "meta_eccentricity": 0.0072869,
        "meta_inclination": 90.0267,
        "meta_ra_of_asc_node": 273.6093,
        "meta_arg_of_pericenter": 200.0902,
        "meta_mean_anomaly": 171.388,
        "meta_ephemeris_type": 0,
        "meta_classification_type": "U",
        "meta_norad_cat_id": 3133,
        "meta_element_set_no": 999,
        "meta_rev_at_epoch": 56775,
        "meta_bstar": 0.00013268,
        "meta_mean_motion_dot": 9.7e-07,
        "meta_mean_motion_ddot": 0,
        "tle_line1": "1 03133U 68012A   25336.11000397  .00000097  00000+0  13268-3 0  9995",
        "tle_line2": "2 03133  90.0267 273.6093 0072869 200.0902 171.3880 13.51561982567750"
      },
      "geometry": {
        "type": "Point",
        "coordinates": [
          93.58843162563261,
          -38.93334101970788
        ]
      }
    },
    {
      "type": "Feature",
      "properties": {
        "norad_id": 4507,
        "name": "NNSS 19 (TRANSIT 19)",
        "group": "nnss",
        "lat": -17.896921593009406,
        "lon": 54.52463958465691,
        "alt_km": 1145.6490056348248,
        "timestamp": "2025-12-02T08:59:32.982621+00:00",
        "meta_object_name": "NNSS 19 (TRANSIT 19)",
        "meta_object_id": "1970-067A",
        "meta_epoch": "2025-12-02T02:40:18.727104",
        "meta_mean_motion": 13.51310591,
        "meta_eccentricity": 0.0171284,
        "meta_inclination": 90.0056,
        "meta_ra_of_asc_node": 234.5263,
        "meta_arg_of_pericenter": 324.3852,
        "meta_mean_anomaly": 34.5964,
        "meta_ephemeris_type": 0,
        "meta_classification_type": "U",
        "meta_norad_cat_id": 4507,
        "meta_element_set_no": 999,
        "meta_rev_at_epoch": 72078,
        "meta_bstar": 0.0002359,
        "meta_mean_motion_dot": 1.76e-06,
        "meta_mean_motion_ddot": 0,
        "tle_line1": "1 04507U 70067A   25336.11132786  .00000176  00000+0  23590-3 0  9999",
        "tle_line2": "2 04507  90.0056 234.5263 0171284 324.3852  34.5964 13.51310591720787"
      },
      "geometry": {
        "type": "Point",
        "coordinates": [
          54.52463958465691,
          -17.896921593009406
        ]
      }
    },
    {
      "type": "Feature",
      "properties": {
        "norad_id": 6909,
        "name": "NNSS 20 (TRANSIT 20)",
        "group": "nnss",
        "lat": -63.76249932343314,
        "lon": 75.50270998076088,
        "alt_km": 1081.9773373040098,
        "timestamp": "2025-12-02T08:59:32.982632+00:00",
        "meta_object_name": "NNSS 20 (TRANSIT 20)",
        "meta_object_id": "1973-081A",
        "meta_epoch": "2025-12-02T00:49:04.315008",
        "meta_mean_motion": 13.71426833,
        "meta_eccentricity": 0.0156429,
        "meta_inclination": 89.8556,
        "meta_ra_of_asc_node": 255.2147,
        "meta_arg_of_pericenter": 110.0227,
        "meta_mean_anomaly": 251.7855,
        "meta_ephemeris_type": 0,
        "meta_classification_type": "U",
        "meta_norad_cat_id": 6909,
        "meta_element_set_no": 999,
        "meta_rev_at_epoch": 80214,
        "meta_bstar": 0.00024394,
        "meta_mean_motion_dot": 2.51e-06,
        "meta_mean_motion_ddot": 0,
        "tle_line1": "1 06909U 73081A   25336.03407772  .00000251  00000+0  24394-3 0  9994",
        "tle_line2": "2 06909  89.8556 255.2147 0156429 110.0227 251.7855 13.71426833802149"
      },
      "geometry": {
        "type": "Point",
        "coordinates": [
          75.50270998076088,
          -63.76249932343314
        ]
      }
    },
    {
      "type": "Feature",
      "properties": {
        "norad_id": 10457,
        "name": "TRANSAT",
        "group": "nnss",
        "lat": -67.09194042302539,
        "lon": 78.13079568198498,
        "alt_km": 1078.068175260134,
        "timestamp": "2025-12-02T08:59:32.982644+00:00",
        "meta_object_name": "TRANSAT",
        "meta_object_id": "1977-106A",
        "meta_epoch": "2025-12-02T01:17:02.439744",
        "meta_mean_motion": 13.48940886,
        "meta_eccentricity": 0.0024441,
        "meta_inclination": 89.6482,
        "meta_ra_of_asc_node": 78.9752,
        "meta_arg_of_pericenter": 221.0927,
        "meta_mean_anomaly": 312.7774,
        "meta_ephemeris_type": 0,
        "meta_classification_type": "U",
        "meta_norad_cat_id": 10457,
        "meta_element_set_no": 999,
        "meta_rev_at_epoch": 36599,
        "meta_bstar": 0.00011583,
        "meta_mean_motion_dot": 8.3e-07,
        "meta_mean_motion_ddot": 0,
        "tle_line1": "1 10457U 77106A   25336.05350046  .00000083  00000+0  11583-3 0  9991",
        "tle_line2": "2 10457  89.6482  78.9752 0024441 221.0927 312.7774 13.48940886365996"
      },
      "geometry": {
        "type": "Point",
        "coordinates": [
          78.13079568198498,
          -67.09194042302539
        ]
      }
    },
    {
      "type": "Feature",
      "properties": {
        "norad_id": 12458,
        "name": "NOVA 1",
        "group": "nnss",
        "lat": 70.38333964300773,
        "lon": 91.94681748683554,
        "alt_km": 1159.4580449884443,
        "timestamp": "2025-12-02T08:59:32.982654+00:00",
        "meta_object_name": "NOVA 1",
        "meta_object_id": "1981-044A",
        "meta_epoch": "2025-12-02T02:15:01.289952",
        "meta_mean_motion": 13.23276665,
        "meta_eccentricity": 0.001555,
        "meta_inclination": 89.8521,
        "meta_ra_of_asc_node": 91.5356,
        "meta_arg_of_pericenter": 130.2253,
        "meta_mean_anomaly": 42.864,
        "meta_ephemeris_type": 0,
        "meta_classification_type": "U",
        "meta_norad_cat_id": 12458,
        "meta_element_set_no": 999,
        "meta_rev_at_epoch": 15045,
        "meta_bstar": 0.00012396,
        "meta_mean_motion_dot": 6.2e-07,
        "meta_mean_motion_ddot": 0,
        "tle_line1": "1 12458U 81044A   25336.09376493  .00000062  00000+0  12396-3 0  9998",
        "tle_line2": "2 12458  89.8521  91.5356 0015550 130.2253  42.8640 13.23276665150456"
      },
      "geometry": {
        "type": "Point",
        "coordinates": [
          91.94681748683554,
          70.38333964300773
        ]
      }
    }
  ]
}